OBJECT_NAME,OBJECT_ID,EPOCH,MEAN_MOTION,ECCENTRICITY,INCLINATION,RA_OF_ASC_NODE,ARG_OF_PERICENTER,MEAN_ANOMALY,EPHEMERIS_TYPE,CLASSIFICATION_TYPE,NORAD_CAT_ID,ELEMENT_SET_NO,REV_AT_EPOCH,BSTAR,MEAN_MOTION_DOT,MEAN_MOTION_DDOT
STARLINK-5895,2023-037BC,2026-07-04T15:31:06.086208,15.11124868,.00026619,69.9972,320.6480,187.2150,172.8978,0,U,55964,999,18221,.21589333E-2,.3634E-3,0
STARLINK-5894,2023-037BD,2026-07-04T08:47:21.101280,14.98331381,.00032293,70.0002,330.1344,270.1642,89.9147,0,U,55965,999,18195,.36340341E-4,.341E-5,0
STARLINK-5905,2023-042A,2026-07-04T12:26:15.256896,15.27583275,.00008796,43.0029,120.0836,256.5903,103.4851,0,U,55986,999,18155,.38654508E-4,.802E-5,0
STARLINK-5915,2023-042B,2026-07-04T04:05:52.075104,15.27581214,.0001101,43.0026,121.7919,266.8874,93.1851,0,U,55987,999,18068,.51732058E-4,.1162E-4,0
STARLINK-5916,2023-042C,2026-07-04T21:00:44.005248,15.27584046,.00015531,43.0056,121.8966,267.3630,92.7044,0,U,55988,999,18074,.49451161E-4,.1099E-4,0
STARLINK-5947,2023-042D,2026-07-04T05:34:28.598880,15.27576823,.00012386,43.0028,121.3963,266.0490,94.0220,0,U,55989,999,18069,.64192394E-4,.1505E-4,0
STARLINK-5946,2023-042E,2026-07-04T21:01:14.158848,15.27581114,.00014465,43.0042,117.6292,267.7058,92.3628,0,U,55990,999,18079,.56109692E-4,.1282E-4,0
STARLINK-5948,2023-042F,2026-07-04T11:53:39.528960,15.27580146,.00012536,43.0021,116.5209,252.7826,107.2889,0,U,55991,999,18077,.44321641E-4,.958E-5,0
STARLINK-5969,2023-042H,2026-07-04T03:54:46.133280,15.27575348,.00014228,43.0029,121.7382,263.9511,96.1179,0,U,55993,999,18068,.60539622E-4,.1404E-4,0
STARLINK-5956,2023-042J,2026-07-04T05:45:34.807680,15.27576572,.00010868,43.0018,121.4515,256.6251,103.4480,0,U,55994,999,18069,.44923098E-4,.974E-5,0
STARLINK-5903,2023-042L,2026-07-04T20:53:49.928928,15.27587546,.0001597,43.0045,117.5880,267.0174,93.0495,0,U,55996,999,18078,.7495248E-5,-.56E-6,0
STARLINK-5902,2023-042N,2026-07-04T20:59:22.762464,15.27581143,.00015538,43.0055,117.6110,264.2645,95.8029,0,U,55998,999,18079,.56947039E-4,.1305E-4,0
STARLINK-5901,2023-042P,2026-07-04T12:13:18.178752,15.27579852,.00009446,43.0009,120.0273,260.6244,99.4501,0,U,55999,999,18073,.36704444E-4,.748E-5,0
STARLINK-5910,2023-042Q,2026-07-04T05:32:37.833216,15.27570210,.00011636,43.0027,121.3743,264.9090,95.1629,0,U,56000,999,18069,-.40694709E-4,-.1381E-4,0
STARLINK-5944,2023-042R,2026-07-04T21:06:16.873344,15.27580562,.00015498,43.0050,121.9139,272.5867,87.4807,0,U,56001,999,18074,.46184994E-4,.1009E-4,0
STARLINK-5799,2023-042S,2026-07-04T21:08:35.983392,15.27598125,.0002032,43.0019,117.6506,275.2965,84.7655,0,U,56002,999,18079,.12371338E-3,.3145E-4,0
STARLINK-5789,2023-042T,2026-07-04T02:59:28.473504,15.27580713,.00007962,43.0015,122.2948,195.4206,164.6622,0,U,56003,999,18067,.176534E-6,-.257E-5,0
STARLINK-5787,2023-042U,2026-07-04T05:50:25.150560,15.27577559,.00013724,43.0024,124.8839,263.4030,96.6665,0,U,56004,999,18065,.59207357E-4,.1367E-4,0
STARLINK-5801,2023-042V,2026-07-04T19:21:01.482624,15.27597027,.00013445,43.0044,122.2231,268.0619,92.0079,0,U,56005,999,18073,-.9046801E-4,-.2752E-4,0
STARLINK-5794,2023-042W,2026-07-04T21:16:40.732320,15.27575744,.00010922,43.0032,125.3783,277.3041,82.7687,0,U,56006,999,18070,.41993205E-4,.894E-5,0
STARLINK-5806,2023-042X,2026-07-04T04:04:01.135776,15.27577350,.0001389,43.0024,121.7734,262.3236,97.7458,0,U,56007,999,18068,.31330701E-4,.6E-5,0
STARLINK-5803,2023-042Y,2026-07-04T21:04:55.651296,15.27582095,.00015594,43.0023,117.6275,270.6085,89.4588,0,U,56008,999,18078,.66666804E-4,.1573E-4,0
STARLINK-5964,2023-042Z,2026-07-04T21:22:43.190688,15.27584661,.00016979,43.0029,121.1421,264.9771,95.0887,0,U,56009,999,18075,.73694045E-4,.1766E-4,0
STARLINK-5968,2023-042AA,2026-07-04T04:09:34.180992,15.27573525,.0001283,43.0014,121.7983,264.7543,95.3163,0,U,56010,999,18068,.41727983E-4,.886E-5,0
STARLINK-5936,2023-042AB,2026-07-04T04:28:48.032256,15.27575471,.00014787,43.0038,107.1952,267.0953,92.9730,0,U,56011,999,18085,.62484264E-4,.1457E-4,0
STARLINK-5940,2023-042AC,2026-07-04T11:53:40.824096,15.27573238,.00008892,43.0031,105.2190,276.5207,83.5544,0,U,56012,999,18090,.55625444E-4,.1269E-4,0
STARLINK-5941,2023-042AD,2026-07-04T12:15:09.025632,15.27580810,.00010983,43.0015,120.0275,256.0511,104.0219,0,U,56013,999,18073,.51225851E-4,.1148E-4,0
STARLINK-5942,2023-042AE,2026-07-04T04:34:21.057600,15.27569702,.00014192,43.0036,107.2252,261.6240,98.4451,0,U,56014,999,18085,-.22404455E-4,-.878E-5,0
STARLINK-5939,2023-042AF,2026-07-04T12:04:46.436736,15.27582109,.000153,43.0050,105.2769,264.8842,95.1835,0,U,56015,999,18090,.43209548E-4,.927E-5,0
STARLINK-5943,2023-042AG,2026-07-04T11:33:31.997376,15.27579494,.00006093,43.0026,105.9563,255.4984,104.5800,0,U,56016,999,18089,.42495819E-4,.908E-5,0
STARLINK-5934,2023-042AH,2026-07-04T03:20:32.947008,15.27576997,.00010039,43.0018,107.6935,237.3733,122.7022,0,U,56017,999,18084,.36176012E-4,.734E-5,0
STARLINK-5945,2023-042AJ,2026-07-04T19:18:45.276480,15.27580530,.00011426,43.0023,104.0816,261.7789,98.2933,0,U,56018,999,18094,.89690247E-4,.2207E-4,0
STARLINK-5949,2023-042AK,2026-07-04T04:45:27.096192,15.27579615,.0001325,43.0025,107.2783,270.0217,90.0483,0,U,56019,999,18085,.36273169E-4,.736E-5,0
STARLINK-5912,2023-042AL,2026-07-04T11:22:25.867200,15.27575959,.0000833,43.0023,105.9043,249.7685,110.3078,0,U,56020,999,18089,.66039877E-4,.1556E-4,0
STARLINK-5907,2023-042AM,2026-07-04T05:00:13.794336,15.27600620,.00012934,43.0025,107.3525,194.9597,165.1217,0,U,56021,999,18085,.11165606E-3,.2813E-4,0
STARLINK-5783,2023-042AN,2026-07-04T19:42:36.099360,15.27580599,.0001338,43.0042,103.3538,267.4311,92.6388,0,U,56022,999,18095,.31736164E-4,.611E-5,0
STARLINK-5771,2023-042AP,2026-07-04T19:33:33.808896,15.27577740,.00008262,43.0037,104.1580,271.4674,88.6083,0,U,56023,999,18094,.49823772E-4,.1109E-4,0
STARLINK-5772,2023-042AQ,2026-07-04T12:08:28.699872,15.27576540,.0001105,43.0038,105.2809,253.1518,106.9212,0,U,56024,999,18090,.37728169E-4,.776E-5,0
STARLINK-5766,2023-042AR,2026-07-04T19:31:43.261824,15.27572865,.00010509,43.0033,104.1455,270.1382,89.9349,0,U,56025,999,18094,.94581017E-4,.2341E-4,0
STARLINK-5770,2023-042AS,2026-07-04T19:48:10.374912,15.27580285,.00015249,43.0049,103.3854,279.5204,80.5475,0,U,56026,999,18094,-.22606241E-4,-.884E-5,0
STARLINK-5777,2023-042AT,2026-07-04T11:49:59.228832,15.27583033,.00014536,43.0048,105.1920,264.9307,95.1379,0,U,56027,999,18090,.64170833E-4,.1504E-4,0
STARLINK-5779,2023-042AU,2026-07-04T04:32:32.243712,15.27533462,.00012236,43.0040,107.2037,272.2123,87.8588,0,U,56028,999,18085,-.17268032E-3,-.5004E-4,0
STARLINK-5774,2023-042AV,2026-07-04T12:02:55.315968,15.27581108,.00016106,43.0051,105.2531,264.5118,95.5550,0,U,56029,999,18090,.33883405E-4,.67E-5,0
STARLINK-5781,2023-042AW,2026-07-04T03:03:54.018720,15.27579497,.00018514,43.0018,107.5979,286.3027,73.7621,0,U,56030,999,18084,.14612295E-3,.3761E-4,0
STARLINK-5785,2023-042AX,2026-07-04T12:12:10.377216,15.27580862,.00015915,43.0046,105.3022,256.2893,103.7782,0,U,56031,999,18090,.51941729E-4,.1167E-4,0
STARLINK-5786,2023-042AY,2026-07-04T11:15:02.480544,15.27568119,.00011463,43.0011,105.8584,265.6923,94.3797,0,U,56032,999,18089,.2365562E-5,-.197E-5,0
STARLINK-5782,2023-042BA,2026-07-04T11:26:08.166624,15.27587081,.00013879,43.0020,105.9133,248.2531,111.8173,0,U,56034,999,18089,.2134816E-3,.5618E-4,0
STARLINK-5792,2023-042BB,2026-07-04T03:09:26.685504,15.27579933,.00013365,43.0015,107.6263,261.5610,98.5091,0,U,56035,999,18084,.23061663E-4,.373E-5,0
STARLINK-5790,2023-042BC,2026-07-04T11:13:10.391232,15.27579118,.00009377,43.0013,105.8332,227.0200,133.0573,0,U,56036,999,18089,.29068799E-4,.538E-5,0
STARLINK-5758,2023-042BD,2026-07-04T02:05:36.360960,15.27576195,.00014591,43.0025,93.3965,264.0951,95.9734,0,U,56037,999,18100,.34802947E-4,.696E-5,0
STARLINK-5793,2023-042BE,2026-07-04T19:28:01.083360,15.27583397,.00007172,43.0032,104.1210,243.7077,116.3701,0,U,56038,999,18094,.10631024E-3,.2665E-4,0
STARLINK-5795,2023-042BF,2026-07-04T04:05:39.897888,15.27579168,.0000938,43.0016,93.1609,257.6691,102.4056,0,U,56039,999,18101,.16481294E-4,.192E-5,0
STARLINK-5798,2023-042BG,2026-07-04T10:27:50.484672,15.27578955,.00009134,43.0038,91.7022,250.8045,109.2708,0,U,56040,999,18105,.2494184E-4,.424E-5,0
STARLINK-5800,2023-042BH,2026-07-04T19:03:56.808864,15.27585897,.00014319,43.0056,92.6384,265.9983,94.0705,0,U,56041,999,18107,.70196163E-4,.167E-4,0
STARLINK-6109,2023-046B,2026-07-04T19:06:59.182848,15.27578983,.00011112,43.0004,220.0211,273.2609,86.8116,0,U,56094,999,17994,.37838904E-4,.779E-5,0
STARLINK-6090,2023-046C,2026-07-04T18:55:53.069952,15.27574531,.00009809,43.0011,219.9647,283.6627,76.4115,0,U,56095,999,17994,.68785807E-4,.1631E-4,0
STARLINK-6089,2023-046D,2026-07-03T19:40:11.639424,15.27577705,.00011174,43.0009,225.5893,278.8348,81.2377,0,U,56096,999,17979,-.2519694E-5,-.331E-5,0
STARLINK-6077,2023-046E,2026-07-04T15:41:22.856928,15.27558800,.00009747,43.0002,173.7303,268.9098,91.1641,0,U,56097,999,18046,-.28432051E-4,-.1044E-4,0
STARLINK-6088,2023-046F,2026-07-04T19:01:25.980384,15.27581760,.00009495,43.0005,219.9948,276.3589,83.7155,0,U,56098,999,17993,.81575075E-4,.1984E-4,0
STARLINK-6076,2023-046H,2026-07-04T18:48:28.577376,15.27583366,.00011566,42.9998,219.9296,283.7633,76.3090,0,U,56100,999,17994,.58987608E-4,.1362E-4,0
STARLINK-6095,2023-046J,2026-07-04T09:29:06.006624,15.27573261,.00012629,43.0007,222.1635,270.5687,89.5020,0,U,56101,999,17988,.28713571E-4,.528E-5,0
STARLINK-6075,2023-046K,2026-07-04T19:16:13.966752,15.27587600,.00010281,43.0012,220.0602,318.9887,41.0887,0,U,56102,999,17994,.736447E-5,-.59E-6,0
STARLINK-6096,2023-046L,2026-07-04T19:05:08.142432,15.27586798,.00005914,43.0012,220.0084,282.4577,77.6209,0,U,56103,999,17994,-.12572546E-4,-.608E-5,0
STARLINK-6062,2023-046M,2026-07-04T18:59:34.642752,15.27585081,.00013119,43.0006,219.9770,271.4978,88.5723,0,U,56104,999,17994,.80804408E-4,.1962E-4,0
